{
  "allPinCode": [
    { "id": 0, "Pincode": 110001, "Area": "Baroda House", "Region": "New Delhi" },
    { "id": 1, "Pincode": 110001, "Area": "Bengali Market", "Region": "New Delhi" },
    { "id": 2, "Pincode": 110002, "Area": "A.g.c.r.", "Region": "New Delhi" },
    { "id": 3, "Pincode": 110002, "Area": "Gandhi Smarak Nidhi", "Region": "New Delhi" },
    { "id": 4, "Pincode": 110003, "Area": "Aliganj", "Region": "South Delhi" },
    { "id": 5, "Pincode": 231303, "Area": "Pandara Road", "Region": "South Delhi" },
    { "id": 6, "Pincode": 231301, "Area": "Ghatampur", "Region": "Mirzapur" },
    { "id": 7, "Pincode": 231301, "Area": "Adhwar", "Region": "Mirzapur" },
    { "id": 8, "Pincode": 226001, "Area": "Gokhley Marg", "Region": "Lucknow" },
    { "id": 9, "Pincode": 226001, "Area": "Jawahar Bhawan Po", "Region": "Lucknow" },
    { "id": 10, "Pincode": 226003, "Area": "Amberganj Po", "Region": "Lucknow" },
    { "id": 11, "Pincode": 226003, "Area": "Chaupatiyan Edso", "Region": "Lucknow" },
    { "id": 12, "Pincode": 226004, "Area": "R A College Po", "Region": "Lucknow" },
    { "id": 13, "Pincode": 226004, "Area": "Gurdwara Po", "Region": "Lucknow" },
    { "id": 14, "Pincode": 231001, "Area": "Baghaura", "Region": "Mirzapur" },
    { "id": 15, "Pincode": 231001, "Area": "Barkachha", "Region": "Mirzapur" },
    { "id": 16, "Pincode": 231210, "Area": "Kanethi", "Region": "Mirzapur" },
    { "id": 17, "Pincode": 231210, "Area": "Kalwari Mafi", "Region": "Mirzapur" },
    { "id": 18, "Pincode": 231211, "Area": "Pipra", "Region": "Mirzapur" },
    { "id": 19, "Pincode": 231211, "Area": "Patulki", "Region": "Mirzapur" },
    { "id": 20, "Pincode": 226005, "Area": "Rahim Nagar Padiana", "Region": "Lucknow" },
    { "id": 21, "Pincode": 282001, "Area": "Agra Barrcks", "Region": "Agra" },
    { "id": 22, "Pincode": 282001, "Area": "Balu Ganj", "Region": "Agra" },
    { "id": 23, "Pincode": 282002, "Area": "Civil Court", "Region": "Agra" },
    { "id": 24, "Pincode": 282002, "Area": "Gokulpura", "Region": "Agra" },
    { "id": 25, "Pincode": 282003, "Area": "Agra Fort Ho", "Region": "Agra" },
    { "id": 26, "Pincode": 282003, "Area": "Chimman Lal Road", "Region": "Agra" },
    { "id": 27, "Pincode": 282005, "Area": "Jaganpur", "Region": "Agra" },
    { "id": 28, "Pincode": 282005, "Area": "K.h.sansthan", "Region": "Agra" },
    { "id": 29, "Pincode": 282005, "Area": "Rehan Kalan", "Region": "Agra" },
    { "id": 30, "Pincode": 231301, "Area": "Shivam", "Region": "Chicken" },
    { "id": 31, "Pincode": 231301, "Area": "Shivam", "Region": "Chimpanzee" },
    { "id": 32, "Pincode": 231301, "Area": "Shivam", "Region": "Chinchilla" },
    { "id": 33, "Pincode": 231301, "Area": "Shivam", "Region": "Chough" },
    { "id": 34, "Pincode": 231301, "Area": "Shivam", "Region": "Clam" },
    { "id": 35, "Pincode": 231301, "Area": "Shivam", "Region": "Cobra" },
    { "id": 36, "Pincode": 231301, "Area": "Shivam", "Region": "Cockroach" },
    { "id": 37, "Pincode": 231301, "Area": "Shivam", "Region": "Cod" },
    { "id": 38, "Pincode": 231301, "Area": "Shivam", "Region": "Cormorant" },
    { "id": 39, "Pincode": 231301, "Area": "Shivam", "Region": "Coyote" },
    { "id": 40, "Pincode": 231301, "Area": "Shivam", "Region": "Crab" },
    { "id": 41, "Pincode": 231301, "Area": "Shivam", "Region": "Crane" },
    { "id": 42, "Pincode": 231301, "Area": "Shivam", "Region": "Crocodile" },
    { "id": 43, "Pincode": 231301, "Area": "Shivam", "Region": "Crow" },
    { "id": 44, "Pincode": 231301, "Area": "Shivam", "Region": "Curlew" },
    { "id": 45, "Pincode": 231301, "Area": "Shivam", "Region": "Deer" },
    { "id": 46, "Pincode": 231301, "Area": "Shivam", "Region": "Dinosaur" },
    { "id": 47, "Pincode": 231301, "Area": "Shivam", "Region": "Dog" },
    { "id": 48, "Pincode": 231301, "Area": "Shivam", "Region": "Dogfish" },
    { "id": 49, "Pincode": 231301, "Area": "Shivam", "Region": "Dolphin" },
    { "id": 50, "Pincode": 231301, "Area": "Shivam", "Region": "Dotterel" },
    { "id": 51, "Pincode": 231301, "Area": "Shivam", "Region": "Dove" },
    { "id": 52, "Pincode": 231301, "Area": "Shivam", "Region": "Dragonfly" },
    { "id": 53, "Pincode": 231301, "Area": "Shivam", "Region": "Duck" },
    { "id": 54, "Pincode": 231301, "Area": "Shivam", "Region": "Dugong" },
    { "id": 55, "Pincode": 231301, "Area": "Shivam", "Region": "Dunlin" },
    { "id": 56, "Pincode": 231301, "Area": "Shivam", "Region": "Eagle" },
    { "id": 57, "Pincode": 231301, "Area": "Shivam", "Region": "Echidna" },
    { "id": 58, "Pincode": 231301, "Area": "Shivam", "Region": "Eel" },
    { "id": 59, "Pincode": 231301, "Area": "Shivam", "Region": "Eland" },
    { "id": 60, "Pincode": 231301, "Area": "Shivam", "Region": "Elephant" },
    { "id": 61, "Pincode": 231301, "Area": "Shivam", "Region": "Elk" },
    { "id": 62, "Pincode": 231301, "Area": "Shivam", "Region": "Emu" },
    { "id": 63, "Pincode": 231301, "Area": "Shivam", "Region": "Falcon" },
    { "id": 64, "Pincode": 231301, "Area": "Shivam", "Region": "Ferret" },
    { "id": 65, "Pincode": 231301, "Area": "Shivam", "Region": "Finch" },
    { "id": 66, "Pincode": 231301, "Area": "Shivam", "Region": "Fish" },
    { "id": 67, "Pincode": 231301, "Area": "Shivam", "Region": "Flamingo" },
    { "id": 68, "Pincode": 231301, "Area": "Shivam", "Region": "Fly" },
    { "id": 69, "Pincode": 231301, "Area": "Shivam", "Region": "Fox" },
    { "id": 70, "Pincode": 231301, "Area": "Shivam", "Region": "Frog" },
    { "id": 71, "Pincode": 231301, "Area": "Shivam", "Region": "Gaur" },
    { "id": 72, "Pincode": 231301, "Area": "Shivam", "Region": "Gazelle" },
    { "id": 73, "Pincode": 231301, "Area": "Shivam", "Region": "Gerbil" },
    { "id": 74, "Pincode": 231301, "Area": "Shivam", "Region": "Giraffe" },
    { "id": 75, "Pincode": 231301, "Area": "Shivam", "Region": "Gnat" },
    { "id": 76, "Pincode": 231301, "Area": "Shivam", "Region": "Gnu" },
    { "id": 77, "Pincode": 231301, "Area": "Shivam", "Region": "Goat" },
    { "id": 78, "Pincode": 231301, "Area": "Shivam", "Region": "Goldfinch" },
    { "id": 79, "Pincode": 231301, "Area": "Shivam", "Region": "Goldfish" },
    { "id": 80, "Pincode": 231301, "Area": "Shivam", "Region": "Goose" },
    { "id": 81, "Pincode": 231301, "Area": "Shivam", "Region": "Gorilla" },
    { "id": 82, "Pincode": 231301, "Area": "Shivam", "Region": "Goshawk" },
    { "id": 83, "Pincode": 231301, "Area": "Shivam", "Region": "Grasshopper" },
    { "id": 84, "Pincode": 231301, "Area": "Shivam", "Region": "Grouse" },
    { "id": 85, "Pincode": 231301, "Area": "Shivam", "Region": "Guanaco" },
    { "id": 86, "Pincode": 231301, "Area": "Shivam", "Region": "Gull" },
    { "id": 87, "Pincode": 231301, "Area": "Shivam", "Region": "Hamster" },
    { "id": 88, "Pincode": 231301, "Area": "Shivam", "Region": "Hare" },
    { "id": 89, "Pincode": 231301, "Area": "Shivam", "Region": "Hawk" },
    { "id": 90, "Pincode": 231301, "Area": "Shivam", "Region": "Hedgehog" },
    { "id": 91, "Pincode": 231301, "Area": "Shivam", "Region": "Heron" },
    { "id": 92, "Pincode": 231301, "Area": "Shivam", "Region": "Herring" },
    { "id": 93, "Pincode": 231301, "Area": "Shivam", "Region": "Hippopotamus" },
    { "id": 94, "Pincode": 231301, "Area": "Shivam", "Region": "Hornet" },
    { "id": 95, "Pincode": 231301, "Area": "Shivam", "Region": "Horse" },
    { "id": 96, "Pincode": 231301, "Area": "Shivam", "Region": "Human" },
    { "id": 97, "Pincode": 231301, "Area": "Shivam", "Region": "Hummingbird" },
    { "id": 98, "Pincode": 231301, "Area": "Shivam", "Region": "Hyena" },
    { "id": 99, "Pincode": 231301, "Area": "Shivam", "Region": "Ibex" },
    { "id": 100, "Pincode": 231301, "Area": "Shivam", "Region": "Ibis" },
    { "id": 101, "Pincode": 231301, "Area": "Shivam", "Region": "Jackal" },
    { "id": 102, "Pincode": 231301, "Area": "Shivam", "Region": "Jaguar" },
    { "id": 103, "Pincode": 231301, "Area": "Shivam", "Region": "Jay" },
    { "id": 104, "Pincode": 231301, "Area": "Shivam", "Region": "Jellyfish" },
    { "id": 105, "Pincode": 231301, "Area": "Shivam", "Region": "Kangaroo" },
    { "id": 106, "Pincode": 231301, "Area": "Shivam", "Region": "Kingfisher" },
    { "id": 107, "Pincode": 231301, "Area": "Shivam", "Region": "Koala" },
    { "id": 108, "Pincode": 231301, "Area": "Shivam", "Region": "Kookabura" },
    { "id": 109, "Pincode": 231301, "Area": "Shivam", "Region": "Kouprey" },
    { "id": 110, "Pincode": 231301, "Area": "Shivam", "Region": "Kudu" },
    { "id": 111, "Pincode": 231301, "Area": "Shivam", "Region": "Lapwing" },
    { "id": 112, "Pincode": 231301, "Area": "Shivam", "Region": "Lark" },
    { "id": 113, "Pincode": 231301, "Area": "Shivam", "Region": "Lemur" },
    { "id": 114, "Pincode": 231301, "Area": "Shivam", "Region": "Leopard" },
    { "id": 115, "Pincode": 231301, "Area": "Shivam", "Region": "Lion" },
    { "id": 116, "Pincode": 231301, "Area": "Shivam", "Region": "Llama" },
    { "id": 117, "Pincode": 231301, "Area": "Shivam", "Region": "Lobster" },
    { "id": 118, "Pincode": 231301, "Area": "Shivam", "Region": "Locust" },
    { "id": 119, "Pincode": 231301, "Area": "Shivam", "Region": "Loris" },
    { "id": 120, "Pincode": 231301, "Area": "Shivam", "Region": "Louse" },
    { "id": 121, "Pincode": 231301, "Area": "Shivam", "Region": "Lyrebird" },
    { "id": 122, "Pincode": 231301, "Area": "Shivam", "Region": "Magpie" },
    { "id": 123, "Pincode": 231301, "Area": "Shivam", "Region": "Mallard" },
    { "id": 124, "Pincode": 231301, "Area": "Shivam", "Region": "Manatee" },
    { "id": 125, "Pincode": 231301, "Area": "Shivam", "Region": "Mandrill" },
    { "id": 126, "Pincode": 231301, "Area": "Shivam", "Region": "Mantis" },
    { "id": 127, "Pincode": 231301, "Area": "Shivam", "Region": "Marten" },
    { "id": 128, "Pincode": 231301, "Area": "Shivam", "Region": "Meerkat" },
    { "id": 129, "Pincode": 231301, "Area": "Shivam", "Region": "Mink" },
    { "id": 130, "Pincode": 231301, "Area": "Shivam", "Region": "Mole" },
    { "id": 131, "Pincode": 231301, "Area": "Shivam", "Region": "Mongoose" },
    { "id": 132, "Pincode": 231301, "Area": "Shivam", "Region": "Monkey" },
    { "id": 133, "Pincode": 231301, "Area": "Shivam", "Region": "Moose" },
    { "id": 134, "Pincode": 231301, "Area": "Shivam", "Region": "Mosquito" },
    { "id": 135, "Pincode": 231301, "Area": "Shivam", "Region": "Mouse" },
    { "id": 136, "Pincode": 231301, "Area": "Shivam", "Region": "Mule" },
    { "id": 137, "Pincode": 231301, "Area": "Shivam", "Region": "Narwhal" },
    { "id": 138, "Pincode": 231301, "Area": "Shivam", "Region": "Newt" },
    { "id": 139, "Pincode": 231301, "Area": "Shivam", "Region": "Nightingale" },
    { "id": 140, "Pincode": 231301, "Area": "Shivam", "Region": "Octopus" },
    { "id": 141, "Pincode": 231301, "Area": "Shivam", "Region": "Okapi" },
    { "id": 142, "Pincode": 231301, "Area": "Shivam", "Region": "Opossum" },
    { "id": 143, "Pincode": 231301, "Area": "Shivam", "Region": "Oryx" },
    { "id": 144, "Pincode": 231301, "Area": "Shivam", "Region": "Ostrich" },
    { "id": 145, "Pincode": 231301, "Area": "Shivam", "Region": "Otter" },
    { "id": 146, "Pincode": 231301, "Area": "Shivam", "Region": "Owl" },
    { "id": 147, "Pincode": 231301, "Area": "Shivam", "Region": "Oyster" },
    { "id": 148, "Pincode": 231301, "Area": "Shivam", "Region": "Panther" },
    { "id": 149, "Pincode": 231301, "Area": "Shivam", "Region": "Parrot" },
    { "id": 150, "Pincode": 231301, "Area": "Shivam", "Region": "Partridge" },
    { "id": 151, "Pincode": 231301, "Area": "Shivam", "Region": "Peafowl" },
    { "id": 152, "Pincode": 231301, "Area": "Shivam", "Region": "Pelican" },
    { "id": 153, "Pincode": 231301, "Area": "Shivam", "Region": "Penguin" },
    { "id": 154, "Pincode": 231301, "Area": "Shivam", "Region": "Pheasant" },
    { "id": 155, "Pincode": 231301, "Area": "Shivam", "Region": "Pig" },
    { "id": 156, "Pincode": 231301, "Area": "Shivam", "Region": "Pigeon" },
    { "id": 157, "Pincode": 231301, "Area": "Shivam", "Region": "Pony" },
    { "id": 158, "Pincode": 231301, "Area": "Shivam", "Region": "Porcupine" },
    { "id": 159, "Pincode": 231301, "Area": "Shivam", "Region": "Porpoise" },
    { "id": 160, "Pincode": 231301, "Area": "Shivam", "Region": "Quail" },
    { "id": 161, "Pincode": 231301, "Area": "Shivam", "Region": "Quelea" },
    { "id": 162, "Pincode": 231301, "Area": "Shivam", "Region": "Quetzal" },
    { "id": 163, "Pincode": 231301, "Area": "Shivam", "Region": "Rabbit" },
    { "id": 164, "Pincode": 231301, "Area": "Shivam", "Region": "Raccoon" },
    { "id": 165, "Pincode": 231301, "Area": "Shivam", "Region": "Rail" },
    { "id": 166, "Pincode": 231301, "Area": "Shivam", "Region": "Ram" },
    { "id": 167, "Pincode": 231301, "Area": "Shivam", "Region": "Rat" },
    { "id": 168, "Pincode": 231301, "Area": "Shivam", "Region": "Raven" },
    { "id": 169, "Pincode": 231301, "Area": "Shivam", "Region": "Red deer" },
    { "id": 170, "Pincode": 231301, "Area": "Shivam", "Region": "Red panda" },
    { "id": 171, "Pincode": 231301, "Area": "Shivam", "Region": "Reindeer" },
    { "id": 172, "Pincode": 231301, "Area": "Shivam", "Region": "Rhinoceros" },
    { "id": 173, "Pincode": 231301, "Area": "Shivam", "Region": "Rook" },
    { "id": 174, "Pincode": 231301, "Area": "Shivam", "Region": "Salamander" },
    { "id": 175, "Pincode": 231301, "Area": "Shivam", "Region": "Salmon" },
    { "id": 176, "Pincode": 231301, "Area": "Shivam", "Region": "Sand Dollar" },
    { "id": 177, "Pincode": 231301, "Area": "Shivam", "Region": "Sandpiper" },
    { "id": 178, "Pincode": 231301, "Area": "Shivam", "Region": "Sardine" },
    { "id": 179, "Pincode": 231301, "Area": "Shivam", "Region": "Scorpion" },
    { "id": 180, "Pincode": 231301, "Area": "Shivam", "Region": "Seahorse" },
    { "id": 181, "Pincode": 231301, "Area": "Shivam", "Region": "Seal" },
    { "id": 182, "Pincode": 231301, "Area": "Shivam", "Region": "Shark" },
    { "id": 183, "Pincode": 231301, "Area": "Shivam", "Region": "Sheep" },
    { "id": 184, "Pincode": 231301, "Area": "Shivam", "Region": "Shrew" },
    { "id": 185, "Pincode": 231301, "Area": "Shivam", "Region": "Skunk" },
    { "id": 186, "Pincode": 231301, "Area": "Shivam", "Region": "Snail" },
    { "id": 187, "Pincode": 231301, "Area": "Shivam", "Region": "Snake" },
    { "id": 188, "Pincode": 231301, "Area": "Shivam", "Region": "Sparrow" },
    { "id": 189, "Pincode": 231301, "Area": "Shivam", "Region": "Spider" },
    { "id": 190, "Pincode": 231301, "Area": "Shivam", "Region": "Spoonbill" },
    { "id": 191, "Pincode": 231301, "Area": "Shivam", "Region": "Squid" },
    { "id": 192, "Pincode": 231301, "Area": "Shivam", "Region": "Squirrel" },
    { "id": 193, "Pincode": 231301, "Area": "Shivam", "Region": "Starling" },
    { "id": 194, "Pincode": 231301, "Area": "Shivam", "Region": "Stingray" },
    { "id": 195, "Pincode": 231301, "Area": "Shivam", "Region": "Stinkbug" },
    { "id": 196, "Pincode": 231301, "Area": "Shivam", "Region": "Stork" },
    { "id": 197, "Pincode": 231301, "Area": "Shivam", "Region": "Swallow" },
    { "id": 198, "Pincode": 231301, "Area": "Shivam", "Region": "Swan" },
    { "id": 199, "Pincode": 231301, "Area": "Shivam", "Region": "Tapir" },
    { "id": 200, "Pincode": 231301, "Area": "Shivam", "Region": "Tarsier" },
    { "id": 201, "Pincode": 231301, "Area": "Shivam", "Region": "Termite" },
    { "id": 202, "Pincode": 231301, "Area": "Shivam", "Region": "Tiger" },
    { "id": 203, "Pincode": 231301, "Area": "Shivam", "Region": "Toad" },
    { "id": 204, "Pincode": 231301, "Area": "Shivam", "Region": "Trout" },
    { "id": 205, "Pincode": 231301, "Area": "Shivam", "Region": "Turkey" },
    { "id": 206, "Pincode": 231301, "Area": "Shivam", "Region": "Turtle" },
    { "id": 207, "Pincode": 231301, "Area": "Shivam", "Region": "Viper" },
    { "id": 208, "Pincode": 231301, "Area": "Shivam", "Region": "Vulture" },
    { "id": 209, "Pincode": 231301, "Area": "Shivam", "Region": "Wallaby" },
    { "id": 210, "Pincode": 231301, "Area": "Shivam", "Region": "Walrus" },
    { "id": 211, "Pincode": 231301, "Area": "Shivam", "Region": "Wasp" },
    { "id": 212, "Pincode": 231301, "Area": "Shivam", "Region": "Weasel" },
    { "id": 213, "Pincode": 231301, "Area": "Shivam", "Region": "Whale" },
    { "id": 214, "Pincode": 231301, "Area": "Shivam", "Region": "Wildcat" },
    { "id": 215, "Pincode": 231301, "Area": "Shivam", "Region": "Wolf" },
    { "id": 216, "Pincode": 231301, "Area": "Shivam", "Region": "Wolverine" },
    { "id": 217, "Pincode": 231301, "Area": "Shivam", "Region": "Wombat" },
    { "id": 218, "Pincode": 231301, "Area": "Shivam", "Region": "Woodcock" },
    { "id": 219, "Pincode": 231301, "Area": "Shivam", "Region": "Woodpecker" },
    { "id": 220, "Pincode": 231301, "Area": "Shivam", "Region": "Worm" },
    { "id": 221, "Pincode": 231301, "Area": "Shivam", "Region": "Wren" },
    { "id": 222, "Pincode": 231301, "Area": "Shivam", "Region": "Yak" },
    { "id": 223, "Pincode": 231301, "Area": "Shivam", "Region": "Zebra" }
  ]
}
